NORAD_CAT_ID,OBJECT_NAME,OBJECT_TYPE,EPOCH,MEAN_MOTION,ECCENTRICITY,INCLINATION,RA_OF_ASC_NODE,ARG_OF_PERICENTER,MEAN_ANOMALY,BSTAR,MEAN_MOTION_DOT,MEAN_MOTION_DDOT,TLE_LINE0,TLE_LINE1,TLE_LINE2,SEMIMAJOR_AXIS,PERIOD,APOGEE,PERIGEE,DECAYED
50831.0,STARLINK-3299,PAYLOAD,2023-03-14 03:48:02,15.08835196,0.0001878,53.2172,29.255,125.5342,234.5826,0.00073997,0.00011507,0.0,0 STARLINK-3299,1 50831U 22001AE  23073.15835693  .00011507  00000-0  73997-3 0  9999,2 50831  53.2172  29.2550 0001878 125.5342 234.5826 15.08835196 66893,6917.895,95.438,541.059,538.461,0.0
50831.0,STARLINK-3299,PAYLOAD,2023-03-14 06:58:48,15.0883938,0.0001781,53.2179,28.6615,125.4467,234.6692,0.00065891,0.00010214,0.0,0 STARLINK-3299,1 50831U 22001AE  23073.29083666  .00010214  00000-0  65891-3 0  9997,2 50831  53.2179  28.6615 0001781 125.4467 234.6692 15.08839380 65648,6917.882,95.438,540.979,538.515,0.0
50831.0,STARLINK-3299,PAYLOAD,2023-03-14 21:17:16,15.08849724,0.0001631,53.2174,25.9868,118.2266,241.8891,0.00076765,0.00011953,0.0,0 STARLINK-3299,1 50831U 22001AE  23073.88699669  .00011953  00000-0  76765-3 0  9991,2 50831  53.2174  25.9868 0001631 118.2266 241.8891 15.08849724 65738,6917.851,95.437,540.844,538.587,0.0
50831.0,STARLINK-3299,PAYLOAD,2023-03-15 05:14:11,15.0889108,0.0001381,53.2176,24.5019,111.23,248.884,0.002468,0.00039264,0.0,0 STARLINK-3299,1 50831U 22001AE  23074.21818807  .00039264  00000-0  24680-2 0  9999,2 50831  53.2176  24.5019 0001381 111.2300 248.8840 15.08891080 67057,6917.724,95.434,540.545,538.634,0.0
50831.0,STARLINK-3299,PAYLOAD,2023-03-15 06:49:34,15.08900782,0.0001399,53.2176,24.2042,112.8177,247.2963,0.0027869,0.00044419,0.0,0 STARLINK-3299,1 50831U 22001AE  23074.28442548  .00044419  00000-0  27869-2 0  9991,2 50831  53.2176  24.2042 0001399 112.8177 247.2963 15.08900782 65796,6917.695,95.434,540.527,538.592,0.0
50831.0,STARLINK-3299,PAYLOAD,2023-03-15 21:08:02,15.08865361,0.0002607,53.217,21.5258,91.7832,268.3459,0.0012507,0.00019687,0.0,0 STARLINK-3299,1 50831U 22001AE  23074.88059009  .00019687  00000-0  12507-2 0  9995,2 50831  53.2170  21.5258 0002607  91.7832 268.3459 15.08865361 65882,6917.803,95.436,541.471,537.864,0.0
50831.0,STARLINK-3299,PAYLOAD,2023-03-16 05:04:59,15.08830656,0.0001264,53.2169,20.0409,102.6567,257.4566,7.0147e-05,8.28e-06,0.0,0 STARLINK-3299,1 50831U 22001AE  23075.21179453  .00000828  00000-0  70147-4 0  9992,2 50831  53.2169  20.0409 0001264 102.6567 257.4566 15.08830656 67202,6917.909,95.438,540.648,538.9,0.0
50831.0,STARLINK-3299,PAYLOAD,2023-03-17 06:31:09,15.08850393,0.0001194,53.2162,15.2837,94.8954,265.2174,0.0011165,0.00017531,0.0,0 STARLINK-3299,1 50831U 22001AE  23076.27164341  .00017531  00000-0  11165-2 0  9991,2 50831  53.2162  15.2837 0001194  94.8954 265.2174 15.08850393 67369,6917.849,95.437,540.54,538.888,0.0
50831.0,STARLINK-3299,PAYLOAD,2023-03-17 12:52:42,15.08849994,0.0001523,53.2168,14.093,77.6974,282.4189,0.00079224,0.00012346,0.0,0 STARLINK-3299,1 50831U 22001AE  23076.53660479  .00012346  00000-0  79224-3 0  9993,2 50831  53.2168  14.0930 0001523  77.6974 282.4189 15.08849994 67400,6917.85,95.437,540.768,538.661,0.0
50831.0,STARLINK-3299,PAYLOAD,2023-03-17 19:14:15,15.08849443,0.0001591,53.2153,12.9048,83.2982,276.8191,0.00070654,0.00010977,0.0,0 STARLINK-3299,1 50831U 22001AE  23076.80156439  .00010977  00000-0  70654-3 0  9995,2 50831  53.2153  12.9048 0001591  83.2982 276.8191 15.08849443 66170,6917.852,95.437,540.817,538.616,0.0
50831.0,STARLINK-3299,PAYLOAD,2023-03-18 00:00:24,15.08841129,0.0001414,53.2169,12.0122,87.7147,272.4007,0.00036669,5.553e-05,0.0,0 STARLINK-3299,1 50831U 22001AE  23077.00028451  .00005553  00000-0  36669-3 0  9992,2 50831  53.2169  12.0122 0001414  87.7147 272.4007 15.08841129 67472,6917.877,95.437,540.72,538.764,0.0
50831.0,STARLINK-3299,PAYLOAD,2023-03-18 19:05:02,15.08844015,0.0001387,53.2164,8.4431,94.8143,265.3008,8.577e-05,1.078e-05,0.0,0 STARLINK-3299,1 50831U 22001AE  23077.79516212  .00001078  00000-0  85770-4 0  9991,2 50831  53.2164   8.4431 0001387  94.8143 265.3008 15.08844015 66325,6917.868,95.437,540.693,538.774,0.0
50831.0,STARLINK-3299,PAYLOAD,2023-03-19 04:37:20,15.08853552,0.0001182,53.2163,6.6597,97.1726,262.9401,0.00025172,3.722e-05,0.0,0 STARLINK-3299,1 50831U 22001AE  23078.19259715  .00003722  00000-0  25172-3 0  9995,2 50831  53.2163   6.6597 0001182  97.1726 262.9401 15.08853552 67656,6917.839,95.437,540.522,538.886,0.0
50831.0,STARLINK-3299,PAYLOAD,2023-03-19 12:34:16,15.08841937,0.0001413,53.2172,5.1732,80.3502,279.765,5.7414e-05,6.26e-06,0.0,0 STARLINK-3299,1 50831U 22001AE  23078.52380293  .00000626  00000-0  57414-4 0  9993,2 50831  53.2172   5.1732 0001413  80.3502 279.7650 15.08841937 67706,6917.874,95.437,540.717,538.762,0.0
50831.0,STARLINK-3299,PAYLOAD,2023-03-20 04:28:07,15.08843155,0.00013,53.2172,2.198,90.8604,269.2537,9.6855e-05,1.254e-05,0.0,0 STARLINK-3299,1 50831U 22001AE  23079.18620271  .00001254  00000-0  96855-4 0  9999,2 50831  53.2172   2.1980 0001300  90.8604 269.2537 15.08843155 66534,6917.871,95.437,540.635,538.836,0.0
50831.0,STARLINK-3299,PAYLOAD,2023-03-20 21:57:22,15.08840676,0.000126,53.2178,358.9273,91.6323,268.4813,0.00017026,2.423e-05,0.0,0 STARLINK-3299,1 50831U 22001AE  23079.91484573  .00002423  00000-0  17026-3 0  9994,2 50831  53.2178 358.9273 0001260  91.6323 268.4813 15.08840676 67915,6917.878,95.438,540.615,538.872,0.0
50831.0,STARLINK-3299,PAYLOAD,2023-03-21 04:18:54,15.08850099,0.0001227,53.2181,357.7376,79.0503,281.0628,0.00028796,4.299e-05,0.0,0 STARLINK-3299,1 50831U 22001AE  23080.17980192  .00004299  00000-0  28796-3 0  9991,2 50831  53.2181 357.7376 0001227  79.0503 281.0628 15.08850099 66681,6917.85,95.437,540.563,538.866,0.0
50831.0,STARLINK-3299,PAYLOAD,2023-03-21 21:48:09,15.08843449,0.0001225,53.2169,354.4665,70.5846,289.5278,0.00022034,3.221e-05,0.0,0 STARLINK-3299,1 50831U 22001AE  23080.90844497  .00003221  00000-0  22034-3 0  9992,2 50831  53.2169 354.4665 0001225  70.5846 289.5278 15.08843449 68065,6917.87,95.437,540.582,538.887,0.0
50831.0,STARLINK-3299,PAYLOAD,2023-03-22 04:09:41,15.08857889,0.0001263,53.2182,353.277,77.9216,282.1917,0.00041235,6.284e-05,0.0,0 STARLINK-3299,1 50831U 22001AE  23081.17339808  .00006284  00000-0  41235-3 0  9993,2 50831  53.2182 353.2770 0001263  77.9216 282.1917 15.08857889 68105,6917.826,95.436,540.564,538.817,0.0
50831.0,STARLINK-3299,PAYLOAD,2023-03-22 21:38:56,15.08841583,0.0001185,53.2175,350.0054,74.8281,285.2842,1.4646e-05,-5.5e-07,0.0,0 STARLINK-3299,1 50831U 22001AE  23081.90204279 -.00000055  00000-0  14646-4 0  9995,2 50831  53.2175 350.0054 0001185  74.8281 285.2842 15.08841583 66943,6917.876,95.437,540.56,538.921,0.0
50831.0,STARLINK-3299,PAYLOAD,2023-03-23 04:00:28,15.08859248,0.0001168,53.2173,348.8163,91.9962,268.1164,0.00040252,6.127e-05,0.0,0 STARLINK-3299,1 50831U 22001AE  23082.16699638  .00006127  00000-0  40252-3 0  9997,2 50831  53.2173 348.8163 0001168  91.9962 268.1164 15.08859248 68254,6917.822,95.436,540.495,538.879,0.0
50831.0,STARLINK-3299,PAYLOAD,2023-03-23 15:08:10,15.08835211,0.0001151,53.218,346.7353,95.1054,265.0069,-7.8083e-05,-1.53e-05,0.0,0 STARLINK-3299,1 50831U 22001AE  23082.63068270 -.00001530  00000-0 -78083-4 0  9990,2 50831  53.2180 346.7353 0001151  95.1054 265.0069 15.08835211 68322,6917.895,95.438,540.556,538.964,0.0
50831.0,STARLINK-3299,PAYLOAD,2023-03-23 21:29:43,15.08841445,0.0001683,53.2157,345.541,125.7686,234.3463,-4.926e-05,-1.072e-05,0.0,0 STARLINK-3299,1 50831U 22001AE  23082.89564153 -.00001072  00000-0 -49260-4 0  9995,2 50831  53.2157 345.5410 0001683 125.7686 234.3463 15.08841445 67094,6917.876,95.437,540.905,538.577,0.0
50831.0,STARLINK-3299,PAYLOAD,2023-03-24 02:15:52,15.08874767,0.0001121,53.2176,344.6555,86.6141,273.498,0.0010361,0.00016256,0.0,0 STARLINK-3299,1 50831U 22001AE  23083.09435506  .00016256  00000-0  10361-2 0  9993,2 50831  53.2176 344.6555 0001121  86.6141 273.4980 15.08874767 68398,6917.774,95.435,540.415,538.864,0.0
50831.0,STARLINK-3299,PAYLOAD,2023-03-24 21:20:29,15.08859755,0.000116,53.2169,341.0872,85.2224,274.8901,0.00031551,4.74e-05,0.0,0 STARLINK-3299,1 50831U 22001AE  23083.88922885  .00004740  00000-0  31551-3 0  9991,2 50831  53.2169 341.0872 0001160  85.2224 274.8901 15.08859755 68515,6917.82,95.436,540.487,538.883,0.0
50831.0,STARLINK-3299,PAYLOAD,2023-03-25 02:06:38,15.08882206,0.0001386,53.2159,340.1944,82.2745,277.8404,0.00085197,0.00013313,0.0,0 STARLINK-3299,1 50831U 22001AE  23084.08794157  .00013313  00000-0  85197-3 0  9994,2 50831  53.2159 340.1944 0001386  82.2745 277.8404 15.08882206 68540,6917.751,95.435,540.575,538.658,0.0
50831.0,STARLINK-3299,PAYLOAD,2023-03-25 21:11:17,15.08813554,0.0001239,53.2157,336.6286,85.4154,274.698,-0.00057582,-9.434e-05,0.0,0 STARLINK-3299,1 50831U 22001AE  23084.88284638 -.00009434  00000-0 -57582-3 0  9998,2 50831  53.2157 336.6286 0001239  85.4154 274.6980 15.08813554 68660,6917.961,95.439,540.683,538.969,0.0
50831.0,STARLINK-3299,PAYLOAD,2023-03-25 22:46:41,15.08815286,0.0001696,53.2161,336.3311,88.3474,271.7712,-0.00050038,-8.237e-05,0.0,0 STARLINK-3299,1 50831U 22001AE  23084.94908770 -.00008237  00000-0 -50038-3 0  9994,2 50831  53.2161 336.3311 0001696  88.3474 271.7712 15.08815286 67401,6917.956,95.439,540.994,538.648,0.0
50831.0,STARLINK-3299,PAYLOAD,2023-03-26 22:37:29,15.08828672,0.0001509,53.2162,331.87,98.0061,262.1102,4.8346e-05,4.81e-06,0.0,0 STARLINK-3299,1 50831U 22001AE  23085.94269795  .00000481  00000-0  48346-4 0  9993,2 50831  53.2162 331.8700 0001509  98.0061 262.1102 15.08828672 67553,6917.915,95.438,540.824,538.736,0.0
50831.0,STARLINK-3299,PAYLOAD,2023-03-27 01:48:15,15.0884406,0.0001456,53.2168,331.2737,99.0306,261.0851,0.00043898,6.706e-05,0.0,0 STARLINK-3299,1 50831U 22001AE  23086.07517687  .00006706  00000-0  43898-3 0  9996,2 50831  53.2168 331.2737 0001456  99.0306 261.0851 15.08844060 68848,6917.868,95.437,540.74,538.726,0.0
